{
  "type": "FeatureCollection",
  "features": [
    {
      "type": "Feature",
      "properties": {
        "norad_id": 33835,
        "name": "COSMOS 2251 DEB",
        "group": "cosmos-2251-debris",
        "lat": -72.70911503993254,
        "lon": 13.455852024784178,
        "alt_km": 724.1327560576647,
        "timestamp": "2025-12-23T16:57:12.747517+00:00",
        "meta_object_name": "COSMOS 2251 DEB",
        "meta_object_id": "1993-036CC",
        "meta_epoch": "2025-12-23T05:56:40.433280",
        "meta_mean_motion": 14.6234525,
        "meta_eccentricity": 0.00538517,
        "meta_inclination": 74.0572,
        "meta_ra_of_asc_node": 81.01,
        "meta_arg_of_pericenter": 131.4814,
        "meta_mean_anomaly": 251.1024,
        "meta_ephemeris_type": 0,
        "meta_classification_type": "U",
        "meta_norad_cat_id": 33835,
        "meta_element_set_no": 999,
        "meta_rev_at_epoch": 88943,
        "meta_bstar": 0.00092282942,
        "meta_mean_motion_dot": 4.733e-05,
        "meta_mean_motion_ddot": 0,
        "tle_line1": "1 33835U 93036CC  25357.24769020  .00004733  00000+0  92283-3 0  9998",
        "tle_line2": "2 33835  74.0572  81.0100 0053851 131.4814 251.1024 14.62345250889432"
      },
      "geometry": {
        "type": "Point",
        "coordinates": [
          13.455852024784178,
          -72.70911503993254
        ]
      }
    },
    {
      "type": "Feature",
      "properties": {
        "norad_id": 33836,
        "name": "COSMOS 2251 DEB",
        "group": "cosmos-2251-debris",
        "lat": -73.70243521066521,
        "lon": 136.3186381872414,
        "alt_km": 652.8953049293023,
        "timestamp": "2025-12-23T16:57:12.747527+00:00",
        "meta_object_name": "COSMOS 2251 DEB",
        "meta_object_id": "1993-036CD",
        "meta_epoch": "2025-12-23T03:29:31.689888",
        "meta_mean_motion": 14.79785856,
        "meta_eccentricity": 0.00227896,
        "meta_inclination": 73.9961,
        "meta_ra_of_asc_node": 238.4155,
        "meta_arg_of_pericenter": 87.573,
        "meta_mean_anomaly": 72.5934,
        "meta_ephemeris_type": 0,
        "meta_classification_type": "U",
        "meta_norad_cat_id": 33836,
        "meta_element_set_no": 999,
        "meta_rev_at_epoch": 64242,
        "meta_bstar": 0.0012029969,
        "meta_mean_motion_dot": 9.073e-05,
        "meta_mean_motion_ddot": 0,
        "tle_line1": "1 33836U 93036CD  25357.14550567  .00009073  00000+0  12030-2 0  9995",
        "tle_line2": "2 33836  73.9961 238.4155 0022789  87.5730  72.5934 14.79785856642424"
      },
      "geometry": {
        "type": "Point",
        "coordinates": [
          136.3186381872414,
          -73.70243521066521
        ]
      }
    },
    {
      "type": "Feature",
      "properties": {
        "norad_id": 33837,
        "name": "COSMOS 2251 DEB",
        "group": "cosmos-2251-debris",
        "lat": -1.7019902994299096,
        "lon": -144.56056948527907,
        "alt_km": 718.6976880913935,
        "timestamp": "2025-12-23T16:57:12.747538+00:00",
        "meta_object_name": "COSMOS 2251 DEB",
        "meta_object_id": "1993-036CE",
        "meta_epoch": "2025-12-23T04:31:48.590976",
        "meta_mean_motion": 14.50722187,
        "meta_eccentricity": 0.00358966,
        "meta_inclination": 74.0125,
        "meta_ra_of_asc_node": 35.9255,
        "meta_arg_of_pericenter": 255.9907,
        "meta_mean_anomaly": 103.7261,
        "meta_ephemeris_type": 0,
        "meta_classification_type": "U",
        "meta_norad_cat_id": 33837,
        "meta_element_set_no": 999,
        "meta_rev_at_epoch": 88947,
        "meta_bstar": 0.00022838906,
        "meta_mean_motion_dot": 8.77e-06,
        "meta_mean_motion_ddot": 0,
        "tle_line1": "1 33837U 93036CE  25357.18875684  .00000877  00000+0  22839-3 0  9992",
        "tle_line2": "2 33837  74.0125  35.9255 0035896 255.9907 103.7261 14.50722187889475"
      },
      "geometry": {
        "type": "Point",
        "coordinates": [
          -144.56056948527907,
          -1.7019902994299096
        ]
      }
    },
    {
      "type": "Feature",
      "properties": {
        "norad_id": 33838,
        "name": "COSMOS 2251 DEB",
        "group": "cosmos-2251-debris",
        "lat": -35.65914759858753,
        "lon": 117.42435207367369,
        "alt_km": 731.1409680993884,
        "timestamp": "2025-12-23T16:57:12.747548+00:00",
        "meta_object_name": "COSMOS 2251 DEB",
        "meta_object_id": "1993-036CF",
        "meta_epoch": "2025-12-22T20:07:10.186176",
        "meta_mean_motion": 14.48392182,
        "meta_eccentricity": 0.00274838,
        "meta_inclination": 74.0363,
        "meta_ra_of_asc_node": 130.9013,
        "meta_arg_of_pericenter": 251.399,
        "meta_mean_anomaly": 226.5272,
        "meta_ephemeris_type": 0,
        "meta_classification_type": "U",
        "meta_norad_cat_id": 33838,
        "meta_element_set_no": 999,
        "meta_rev_at_epoch": 88715,
        "meta_bstar": 0.00036244538,
        "meta_mean_motion_dot": 1.336e-05,
        "meta_mean_motion_ddot": 0,
        "tle_line1": "1 33838U 93036CF  25356.83831234  .00001336  00000+0  36245-3 0  9994",
        "tle_line2": "2 33838  74.0363 130.9013 0027483 251.3990 226.5272 14.48392182887157"
      },
      "geometry": {
        "type": "Point",
        "coordinates": [
          117.42435207367369,
          -35.65914759858753
        ]
      }
    },
    {
      "type": "Feature",
      "properties": {
        "norad_id": 33839,
        "name": "COSMOS 2251 DEB",
        "group": "cosmos-2251-debris",
        "lat": 17.706871690961915,
        "lon": 0.16450897869964984,
        "alt_km": 720.1155702956839,
        "timestamp": "2025-12-23T16:57:12.747573+00:00",
        "meta_object_name": "COSMOS 2251 DEB",
        "meta_object_id": "1993-036CG",
        "meta_epoch": "2025-12-22T06:18:05.356800",
        "meta_mean_motion": 14.64442712,
        "meta_eccentricity": 0.00853344,
        "meta_inclination": 74.0375,
        "meta_ra_of_asc_node": 188.1814,
        "meta_arg_of_pericenter": 298.0809,
        "meta_mean_anomaly": 175.3247,
        "meta_ephemeris_type": 0,
        "meta_classification_type": "U",
        "meta_norad_cat_id": 33839,
        "meta_element_set_no": 999,
        "meta_rev_at_epoch": 89719,
        "meta_bstar": 0.00019432644,
        "meta_mean_motion_dot": 1.05e-05,
        "meta_mean_motion_ddot": 0,
        "tle_line1": "1 33839U 93036CG  25356.26256200  .00001050  00000+0  19433-3 0  9999",
        "tle_line2": "2 33839  74.0375 188.1814 0085334 298.0809 175.3247 14.64442712897192"
      },
      "geometry": {
        "type": "Point",
        "coordinates": [
          0.16450897869964984,
          17.706871690961915
        ]
      }
    },
    {
      "type": "Feature",
      "properties": {
        "norad_id": 33841,
        "name": "COSMOS 2251 DEB",
        "group": "cosmos-2251-debris",
        "lat": -68.3766601861834,
        "lon": -148.3728249061675,
        "alt_km": 763.0744979171805,
        "timestamp": "2025-12-23T16:57:12.747585+00:00",
        "meta_object_name": "COSMOS 2251 DEB",
        "meta_object_id": "1993-036CJ",
        "meta_epoch": "2025-12-23T04:39:03.659904",
        "meta_mean_motion": 14.37874715,
        "meta_eccentricity": 0.00209533,
        "meta_inclination": 74.0376,
        "meta_ra_of_asc_node": 258.7947,
        "meta_arg_of_pericenter": 337.2478,
        "meta_mean_anomaly": 175.3874,
        "meta_ephemeris_type": 0,
        "meta_classification_type": "U",
        "meta_norad_cat_id": 33841,
        "meta_element_set_no": 999,
        "meta_rev_at_epoch": 88264,
        "meta_bstar": 0.00019884869,
        "meta_mean_motion_dot": 5.75e-06,
        "meta_mean_motion_ddot": 0,
        "tle_line1": "1 33841U 93036CJ  25357.19379236  .00000575  00000+0  19885-3 0  9992",
        "tle_line2": "2 33841  74.0376 258.7947 0020953 337.2478 175.3874 14.37874715882643"
      },
      "geometry": {
        "type": "Point",
        "coordinates": [
          -148.3728249061675,
          -68.3766601861834
        ]
      }
    },
    {
      "type": "Feature",
      "properties": {
        "norad_id": 33842,
        "name": "COSMOS 2251 DEB",
        "group": "cosmos-2251-debris",
        "lat": 10.572320944797776,
        "lon": -157.64034580445107,
        "alt_km": 737.1229496667374,
        "timestamp": "2025-12-23T16:57:12.747596+00:00",
        "meta_object_name": "COSMOS 2251 DEB",
        "meta_object_id": "1993-036CK",
        "meta_epoch": "2025-12-22T22:35:48.329376",
        "meta_mean_motion": 14.42716129,
        "meta_eccentricity": 0.0047532,
        "meta_inclination": 74.0316,
        "meta_ra_of_asc_node": 200.7155,
        "meta_arg_of_pericenter": 306.0487,
        "meta_mean_anomaly": 53.627,
        "meta_ephemeris_type": 0,
        "meta_classification_type": "U",
        "meta_norad_cat_id": 33842,
        "meta_element_set_no": 999,
        "meta_rev_at_epoch": 88484,
        "meta_bstar": 0.00024744,
        "meta_mean_motion_dot": 8.08e-06,
        "meta_mean_motion_ddot": 0,
        "tle_line1": "1 33842U 93036CK  25356.94153159  .00000808  00000+0  24744-3 0  9998",
        "tle_line2": "2 33842  74.0316 200.7155 0047532 306.0487  53.6270 14.42716129884844"
      },
      "geometry": {
        "type": "Point",
        "coordinates": [
          -157.64034580445107,
          10.572320944797776
        ]
      }
    }
  ]
}